{
  "type": "FeatureCollection",
  "features": [
    {
      "type": "Feature",
      "properties": {
        "norad_id": 36585,
        "name": "GPS BIIF-1  (PRN 25)",
        "group": "gnss",
        "lat": -34.34447137462829,
        "lon": -173.68697337050926,
        "alt_km": 20293.777428354722,
        "timestamp": "2025-12-21T09:37:22.896484+00:00",
        "meta_object_name": "GPS BIIF-1  (PRN 25)",
        "meta_object_id": "2010-022A",
        "meta_epoch": "2025-12-20T02:58:58.243008",
        "meta_mean_motion": 2.00553637,
        "meta_eccentricity": 0.01264155,
        "meta_inclination": 54.299,
        "meta_ra_of_asc_node": 215.7761,
        "meta_arg_of_pericenter": 65.1663,
        "meta_mean_anomaly": 50.4936,
        "meta_ephemeris_type": 0,
        "meta_classification_type": "U",
        "meta_norad_cat_id": 36585,
        "meta_element_set_no": 999,
        "meta_rev_at_epoch": 11400,
        "meta_bstar": 0,
        "meta_mean_motion_dot": 8e-07,
        "meta_mean_motion_ddot": 0,
        "tle_line1": "1 36585U 10022A   25354.12428522  .00000080  00000+0  00000+0 0  9993",
        "tle_line2": "2 36585  54.2990 215.7761 0126415  65.1663  50.4936  2.00553637114007"
      },
      "geometry": {
        "type": "Point",
        "coordinates": [
          -173.68697337050926,
          -34.34447137462829
        ]
      }
    },
    {
      "type": "Feature",
      "properties": {
        "norad_id": 36828,
        "name": "BEIDOU-2 IGSO-1 (C06)",
        "group": "gnss",
        "lat": 1.9045127147414935,
        "lon": -16.81798972905504,
        "alt_km": 35610.54025928315,
        "timestamp": "2025-12-21T09:37:22.896496+00:00",
        "meta_object_name": "BEIDOU-2 IGSO-1 (C06)",
        "meta_object_id": "2010-036A",
        "meta_epoch": "2025-12-20T21:47:26.739168",
        "meta_mean_motion": 1.00282395,
        "meta_eccentricity": 0.0051798,
        "meta_inclination": 54.2882,
        "meta_ra_of_asc_node": 164.5739,
        "meta_arg_of_pericenter": 215.2932,
        "meta_mean_anomaly": 144.6604,
        "meta_ephemeris_type": 0,
        "meta_classification_type": "U",
        "meta_norad_cat_id": 36828,
        "meta_element_set_no": 999,
        "meta_rev_at_epoch": 5631,
        "meta_bstar": 0,
        "meta_mean_motion_dot": -5.5e-07,
        "meta_mean_motion_ddot": 0,
        "tle_line1": "1 36828U 10036A   25354.90794837 -.00000055  00000+0  00000+0 0  9992",
        "tle_line2": "2 36828  54.2882 164.5739 0051798 215.2932 144.6604  1.00282395 56317"
      },
      "geometry": {
        "type": "Point",
        "coordinates": [
          -16.81798972905504,
          1.9045127147414935
        ]
      }
    },
    {
      "type": "Feature",
      "properties": {
        "norad_id": 37210,
        "name": "BEIDOU-2 G4 (C04)",
        "group": "gnss",
        "lat": -1.833611416072763,
        "lon": 34.77692796073659,
        "alt_km": 35815.63039327776,
        "timestamp": "2025-12-21T09:37:22.896508+00:00",
        "meta_object_name": "BEIDOU-2 G4 (C04)",
        "meta_object_id": "2010-057A",
        "meta_epoch": "2025-12-21T03:41:18.797856",
        "meta_mean_motion": 1.00271974,
        "meta_eccentricity": 0.0010416,
        "meta_inclination": 3.2044,
        "meta_ra_of_asc_node": 69.9074,
        "meta_arg_of_pericenter": 193.0247,
        "meta_mean_anomaly": 42.4575,
        "meta_ephemeris_type": 0,
        "meta_classification_type": "U",
        "meta_norad_cat_id": 37210,
        "meta_element_set_no": 999,
        "meta_rev_at_epoch": 5550,
        "meta_bstar": 0,
        "meta_mean_motion_dot": -9.1e-07,
        "meta_mean_motion_ddot": 0,
        "tle_line1": "1 37210U 10057A   25355.15368979 -.00000091  00000+0  00000+0 0  9993",
        "tle_line2": "2 37210   3.2044  69.9074 0010416 193.0247  42.4575  1.00271974 55504"
      },
      "geometry": {
        "type": "Point",
        "coordinates": [
          34.77692796073659,
          -1.833611416072763
        ]
      }
    },
    {
      "type": "Feature",
      "properties": {
        "norad_id": 37256,
        "name": "BEIDOU-2 IGSO-2 (C07)",
        "group": "gnss",
        "lat": 43.53034716478482,
        "lon": -26.885610861166935,
        "alt_km": 35950.93773503119,
        "timestamp": "2025-12-21T09:37:22.896520+00:00",
        "meta_object_name": "BEIDOU-2 IGSO-2 (C07)",
        "meta_object_id": "2010-068A",
        "meta_epoch": "2025-12-20T17:09:56.640960",
        "meta_mean_motion": 1.0028399,
        "meta_eccentricity": 0.00484742,
        "meta_inclination": 47.8714,
        "meta_ra_of_asc_node": 274.0512,
        "meta_arg_of_pericenter": 216.3556,
        "meta_mean_anomaly": 324.5527,
        "meta_ephemeris_type": 0,
        "meta_classification_type": "U",
        "meta_norad_cat_id": 37256,
        "meta_element_set_no": 999,
        "meta_rev_at_epoch": 5500,
        "meta_bstar": 0,
        "meta_mean_motion_dot": -1.89e-06,
        "meta_mean_motion_ddot": 0,
        "tle_line1": "1 37256U 10068A   25354.71523890 -.00000189  00000+0  00000+0 0  9999",
        "tle_line2": "2 37256  47.8714 274.0512 0048474 216.3556 324.5527  1.00283990 55002"
      },
      "geometry": {
        "type": "Point",
        "coordinates": [
          -26.885610861166935,
          43.53034716478482
        ]
      }
    },
    {
      "type": "Feature",
      "properties": {
        "norad_id": 37384,
        "name": "BEIDOU-2 IGSO-3 (C08)",
        "group": "gnss",
        "lat": -49.732981934553116,
        "lon": 3.3001616626743124,
        "alt_km": 35849.16471200734,
        "timestamp": "2025-12-21T09:37:22.896544+00:00",
        "meta_object_name": "BEIDOU-2 IGSO-3 (C08)",
        "meta_object_id": "2011-013A",
        "meta_epoch": "2025-12-20T17:53:25.122624",
        "meta_mean_motion": 1.00268991,
        "meta_eccentricity": 0.00353432,
        "meta_inclination": 62.1536,
        "meta_ra_of_asc_node": 41.8403,
        "meta_arg_of_pericenter": 187.7861,
        "meta_mean_anomaly": 235.669,
        "meta_ephemeris_type": 0,
        "meta_classification_type": "U",
        "meta_norad_cat_id": 37384,
        "meta_element_set_no": 999,
        "meta_rev_at_epoch": 5387,
        "meta_bstar": 0,
        "meta_mean_motion_dot": -1.63e-06,
        "meta_mean_motion_ddot": 0,
        "tle_line1": "1 37384U 11013A   25354.74542966 -.00000163  00000+0  00000+0 0  9992",
        "tle_line2": "2 37384  62.1536  41.8403 0035343 187.7861 235.6690  1.00268991 53876"
      },
      "geometry": {
        "type": "Point",
        "coordinates": [
          3.3001616626743124,
          -49.732981934553116
        ]
      }
    },
    {
      "type": "Feature",
      "properties": {
        "norad_id": 37605,
        "name": "GSAT-8 (GAGAN/PRN 127)",
        "group": "gnss",
        "lat": -0.746636432255166,
        "lon": -70.34253161503214,
        "alt_km": 35751.353014596854,
        "timestamp": "2025-12-21T09:37:22.896560+00:00",
        "meta_object_name": "GSAT-8 (GAGAN/PRN 127)",
        "meta_object_id": "2011-022A",
        "meta_epoch": "2025-12-21T03:11:14.180064",
        "meta_mean_motion": 1.00270422,
        "meta_eccentricity": 0.0008802,
        "meta_inclination": 1.6701,
        "meta_ra_of_asc_node": 84.1097,
        "meta_arg_of_pericenter": 186.106,
        "meta_mean_anomaly": 282.6239,
        "meta_ephemeris_type": 0,
        "meta_classification_type": "U",
        "meta_norad_cat_id": 37605,
        "meta_element_set_no": 999,
        "meta_rev_at_epoch": 5143,
        "meta_bstar": 0,
        "meta_mean_motion_dot": 1.07e-06,
        "meta_mean_motion_ddot": 0,
        "tle_line1": "1 37605U 11022A   25355.13280301  .00000107  00000+0  00000+0 0  9991",
        "tle_line2": "2 37605   1.6701  84.1097 0008802 186.1060 282.6239  1.00270422 51430"
      },
      "geometry": {
        "type": "Point",
        "coordinates": [
          -70.34253161503214,
          -0.746636432255166
        ]
      }
    },
    {
      "type": "Feature",
      "properties": {
        "norad_id": 37763,
        "name": "BEIDOU-2 IGSO-4 (C09)",
        "group": "gnss",
        "lat": 15.857655606562876,
        "lon": -24.422905534980586,
        "alt_km": 35557.81079323589,
        "timestamp": "2025-12-21T09:37:22.896573+00:00",
        "meta_object_name": "BEIDOU-2 IGSO-4 (C09)",
        "meta_object_id": "2011-038A",
        "meta_epoch": "2025-12-17T23:29:21.564384",
        "meta_mean_motion": 1.00281312,
        "meta_eccentricity": 0.01493143,
        "meta_inclination": 54.5836,
        "meta_ra_of_asc_node": 167.2999,
        "meta_arg_of_pericenter": 230.2426,
        "meta_mean_anomaly": 136.1954,
        "meta_ephemeris_type": 0,
        "meta_classification_type": "U",
        "meta_norad_cat_id": 37763,
        "meta_element_set_no": 999,
        "meta_rev_at_epoch": 5283,
        "meta_bstar": 0,
        "meta_mean_motion_dot": 6.5e-07,
        "meta_mean_motion_ddot": 0,
        "tle_line1": "1 37763U 11038A   25351.97872181  .00000065  00000+0  00000+0 0  9997",
        "tle_line2": "2 37763  54.5836 167.2999 0149314 230.2426 136.1954  1.00281312 52838"
      },
      "geometry": {
        "type": "Point",
        "coordinates": [
          -24.422905534980586,
          15.857655606562876
        ]
      }
    }
  ]
}